MALLIGYONG-1            
1 58400U 23179A   24180.62800630  .00009592  00000+0  43272-3 0  9994
2 58400  97.4024  67.2828 0003274 124.2771 235.8775 15.21210809 33460
